{
    "links": {
        "self": "http://www.neowsapp.com/rest/v1/neo/3841720?api_key=iIulBulltgU6a56xZRHN4H3l9WmuAYTsLGpBGhQ2"
    },
    "id": "3841720",
    "neo_reference_id": "3841720",
    "name": "(2019 JW1)",
    "designation": "2019 JW1",
    "nasa_jpl_url": "http://ssd.jpl.nasa.gov/sbdb.cgi?sstr=3841720",
    "absolute_magnitude_h": 26.2,
    "estimated_diameter": {
        "kilometers": {
            "estimated_diameter_min": 0.0152951935,
            "estimated_diameter_max": 0.0342010925
        },
        "meters": {
            "estimated_diameter_min": 15.2951935344,
            "estimated_diameter_max": 34.201092472
        },
        "miles": {
            "estimated_diameter_min": 0.0095039897,
            "estimated_diameter_max": 0.021251567
        },
        "feet": {
            "estimated_diameter_min": 50.1810827555,
            "estimated_diameter_max": 112.2083122258
        }
    },
    "is_potentially_hazardous_asteroid": false,
    "close_approach_data": [
        {
            "close_approach_date": "1942-04-28",
            "close_approach_date_full": "1942-Apr-28 04:34",
            "epoch_date_close_approach": -873487560000,
            "relative_velocity": {
                "kilometers_per_second": "10.0160366636",
                "kilometers_per_hour": "36057.7319890727",
                "miles_per_hour": "22404.8724128769"
            },
            "miss_distance": {
                "astronomical": "0.0144520995",
                "lunar": "5.6218667055",
                "kilometers": "2162003.302228065",
                "miles": "1343406.557414697"
            },
            "orbiting_body": "Earth"
        },
        {
            "close_approach_date": "2003-04-11",
            "close_approach_date_full": "2003-Apr-11 19:53",
            "epoch_date_close_approach": 1050090780000,
            "relative_velocity": {
                "kilometers_per_second": "9.8952370679",
                "kilometers_per_hour": "35622.8534445589",
                "miles_per_hour": "22134.6557972594"
            },
            "miss_distance": {
                "astronomical": "0.1578403848",
                "lunar": "61.3999096872",
                "kilometers": "23612585.366060376",
                "miles": "14672180.1884341488"
            },
            "orbiting_body": "Earth"
        },
        {
            "close_approach_date": "2019-04-29",
            "close_approach_date_full": "2019-Apr-29 15:46",
            "epoch_date_close_approach": 1556552760000,
            "relative_velocity": {
                "kilometers_per_second": "10.6042227069",
                "kilometers_per_hour": "38175.2017446996",
                "miles_per_hour": "23720.5857729774"
            },
            "miss_distance": {
                "astronomical": "0.0056367162",
                "lunar": "2.1926826018",
                "kilometers": "843240.737314494",
                "miles": "523965.4975642572"
            },
            "orbiting_body": "Moon"
        },
        {
            "close_approach_date": "2019-04-29",
            "close_approach_date_full": "2019-Apr-29 17:34",
            "epoch_date_close_approach": 1556559240000,
            "relative_velocity": {
                "kilometers_per_second": "10.1566292744",
                "kilometers_per_hour": "36563.8653879962",
                "miles_per_hour": "22719.3640240024"
            },
            "miss_distance": {
                "astronomical": "0.0044812115",
                "lunar": "1.7431912735",
                "kilometers": "670379.695419505",
                "miles": "416554.626838969"
            },
            "orbiting_body": "Earth"
        }
    ],
    "orbital_data": {
        "orbit_id": "4",
        "orbit_determination_date": "2019-06-25 05:38:21",
        "first_observation_date": "2019-05-02",
        "last_observation_date": "2019-05-31",
        "data_arc_in_days": 29,
        "observations_used": 28,
        "orbit_uncertainty": "7",
        "minimum_orbit_intersection": ".00417372",
        "jupiter_tisserand_invariant": "4.756",
        "epoch_osculation": "2459000.5",
        "eccentricity": ".2786190959738104",
        "semi_major_axis": "1.364752763266715",
        "inclination": "16.52743699017216",
        "ascending_node_longitude": "219.2055245852005",
        "orbital_period": "582.3437252833473",
        "perihelion_distance": ".9845065821375834",
        "perihelion_argument": "331.2280099835171",
        "aphelion_distance": "1.744998944395847",
        "perihelion_time": "2459160.133402799516",
        "mean_anomaly": "261.3159711133422",
        "mean_motion": ".6181916012314498",
        "equinox": "J2000",
        "orbit_class": {
            "orbit_class_type": "APO",
            "orbit_class_description": "Near-Earth asteroid orbits which cross the Earth’s orbit similar to that of 1862 Apollo",
            "orbit_class_range": "a (semi-major axis) > 1.0 AU; q (perihelion) < 1.017 AU"
        }
    },
    "is_sentry_object": false
}